NORAD_CAT_ID,OBJECT_NAME,OBJECT_TYPE,EPOCH,MEAN_MOTION,ECCENTRICITY,INCLINATION,RA_OF_ASC_NODE,ARG_OF_PERICENTER,MEAN_ANOMALY,BSTAR,MEAN_MOTION_DOT,MEAN_MOTION_DDOT,TLE_LINE0,TLE_LINE1,TLE_LINE2,SEMIMAJOR_AXIS,PERIOD,APOGEE,PERIGEE,DECAYED
54777.0,STARLINK-5468,PAYLOAD,2024-03-18 05:08:50,15.08836183,0.0001452,53.2196,42.7468,96.4635,263.6522,3.3737e-05,2.49e-06,0.0,0 STARLINK-5468,1 54777U 22175V   24078.21447018  .00000249  00000-0  33737-4 0  9997,2 54777  53.2196  42.7468 0001452  96.4635 263.6522 15.08836183 71001,6917.892,95.438,540.762,538.753,0.0
54777.0,STARLINK-5468,PAYLOAD,2024-03-19 03:24:13,15.08846313,0.0001541,53.2199,38.5815,88.2174,271.8995,0.00013698,1.893e-05,0.0,0 STARLINK-5468,1 54777U 22175V   24079.14182250  .00001893  00000-0  13698-3 0  9993,2 54777  53.2199  38.5815 0001541  88.2174 271.8995 15.08846313 68983,6917.861,95.437,540.792,538.66,0.0
54777.0,STARLINK-5468,PAYLOAD,2024-03-19 04:59:36,15.08848053,0.0001553,53.2201,38.2847,85.8125,274.3044,0.00014993,2.099e-05,0.0,0 STARLINK-5468,1 54777U 22175V   24079.20806136  .00002099  00000-0  14993-3 0  9994,2 54777  53.2201  38.2847 0001553  85.8125 274.3044 15.08848053 71150,6917.856,95.437,540.795,538.646,0.0
54777.0,STARLINK-5468,PAYLOAD,2024-03-20 01:39:39,15.08825279,0.0001292,53.2193,34.4235,101.7763,258.3374,-3.3573e-05,-8.22e-06,0.0,0 STARLINK-5468,1 54777U 22175V   24080.06920664 -.00000822  00000-0 -33573-4 0  9993,2 54777  53.2193  34.4235 0001292 101.7763 258.3374 15.08825279 69122,6917.925,95.438,540.684,538.897,0.0
54777.0,STARLINK-5468,PAYLOAD,2024-03-20 03:15:02,15.08824478,0.000145,53.2193,34.1228,102.0332,258.0823,-3.6988e-05,-8.76e-06,0.0,0 STARLINK-5468,1 54777U 22175V   24080.13544820 -.00000876  00000-0 -36988-4 0  9999,2 54777  53.2193  34.1228 0001450 102.0332 258.0823 15.08824478 71290,6917.928,95.439,540.796,538.79,0.0
54777.0,STARLINK-5468,PAYLOAD,2024-03-21 03:05:48,15.08860526,0.0001385,53.2189,29.6612,102.655,257.4597,0.00041239,6.285e-05,0.0,0 STARLINK-5468,1 54777U 22175V   24081.12903256  .00006285  00000-0  41239-3 0  9993,2 54777  53.2189  29.6612 0001385 102.6550 257.4597 15.08860526 69287,6917.818,95.436,540.641,538.725,0.0
54777.0,STARLINK-5468,PAYLOAD,2024-03-22 01:21:12,15.08850747,0.0001438,53.2193,25.4895,97.1441,262.9715,0.00041083,6.258e-05,0.0,0 STARLINK-5468,1 54777U 22175V   24082.05639563  .00006258  00000-0  41083-3 0  9990,2 54777  53.2193  25.4895 0001438  97.1441 262.9715 15.08850747 69428,6917.848,95.437,540.707,538.718,0.0
54777.0,STARLINK-5468,PAYLOAD,2024-03-22 20:25:49,15.08848733,0.0001517,53.2195,21.9303,102.7067,257.4095,-0.00016238,-2.872e-05,0.0,0 STARLINK-5468,1 54777U 22175V   24082.85127296 -.00002872  00000-0 -16238-3 0  9997,2 54777  53.2195  21.9303 0001517 102.7067 257.4095 15.08848733 69545,6917.854,95.437,540.768,538.669,0.0
54777.0,STARLINK-5468,PAYLOAD,2024-03-23 01:12:00,15.08836753,0.000146,53.2201,21.0357,112.1647,247.95,-0.00025685,-4.373e-05,0.0,0 STARLINK-5468,1 54777U 22175V   24083.05000809 -.00004373  00000-0 -25685-3 0  9994,2 54777  53.2201  21.0357 0001460 112.1647 247.9500 15.08836753 69576,6917.89,95.438,540.765,538.745,0.0
54777.0,STARLINK-5468,PAYLOAD,2024-03-23 18:41:14,15.08836878,0.0001802,53.2195,17.7637,121.6637,238.4531,4.2389e-05,3.87e-06,0.0,0 STARLINK-5468,1 54777U 22175V   24083.77863782  .00000387  00000-0  42389-4 0  9990,2 54777  53.2195  17.7637 0001802 121.6637 238.4531 15.08836878 69684,6917.89,95.438,541.002,538.508,0.0
54777.0,STARLINK-5468,PAYLOAD,2024-03-24 01:02:45,15.08858601,0.0002042,53.2198,16.5739,119.6819,240.4376,0.00020842,3.032e-05,0.0,0 STARLINK-5468,1 54777U 22175V   24084.04357886  .00003032  00000-0  20842-3 0  9993,2 54777  53.2198  16.5739 0002042 119.6819 240.4376 15.08858601 69726,6917.824,95.436,541.101,538.276,0.0
54777.0,STARLINK-5468,PAYLOAD,2024-03-24 12:10:24,15.08885586,0.0001571,53.2189,14.4923,77.8671,282.2497,0.00043299,6.618e-05,0.0,0 STARLINK-5468,1 54777U 22175V   24084.50722986  .00006618  00000-0  43299-3 0  9995,2 54777  53.2189  14.4923 0001571  77.8671 282.2497 15.08885586 69792,6917.741,95.435,540.693,538.519,0.0
54777.0,STARLINK-5468,PAYLOAD,2024-03-24 18:32:01,15.08837713,0.0003261,53.2204,13.3114,86.1238,274.0127,4.0293e-05,3.53e-06,0.0,0 STARLINK-5468,1 54777U 22175V   24084.77223599  .00000353  00000-0  40293-4 0  9992,2 54777  53.2204  13.3114 0003261  86.1238 274.0127 15.08837713 69833,6917.887,95.438,542.008,537.496,0.0
54777.0,STARLINK-5468,PAYLOAD,2024-03-25 12:01:14,15.08844875,0.0001371,53.219,10.0336,90.5714,269.5435,0.00012184,1.652e-05,0.0,0 STARLINK-5468,1 54777U 22175V   24085.50086701  .00001652  00000-0  12184-3 0  9996,2 54777  53.2190  10.0336 0001371  90.5714 269.5435 15.08844875 72107,6917.865,95.437,540.679,538.782,0.0
54777.0,STARLINK-5468,PAYLOAD,2024-03-26 03:55:09,15.08821631,0.0001583,53.2194,7.0593,101.5519,258.5651,-0.00029093,-4.913e-05,0.0,0 STARLINK-5468,1 54777U 22175V   24086.16330135 -.00004913  00000-0 -29093-3 0  9994,2 54777  53.2194   7.0593 0001583 101.5519 258.5651 15.08821631 70047,6917.937,95.439,540.897,538.706,0.0
54777.0,STARLINK-5468,PAYLOAD,2024-03-26 11:52:04,15.08840768,0.0001425,53.2195,5.5731,75.5436,284.5714,-0.00034,-5.695e-05,0.0,0 STARLINK-5468,1 54777U 22175V   24086.49449095 -.00005695  00000-0 -34000-3 0  9998,2 54777  53.2195   5.5731 0001425  75.5436 284.5714 15.08840768 70094,6917.878,95.438,540.729,538.757,0.0
54777.0,STARLINK-5468,PAYLOAD,2024-03-26 22:59:45,15.08811526,5.3e-05,53.2199,3.4921,85.7247,274.3806,0.00059474,9.183e-05,0.0,0 STARLINK-5468,1 54777U 22175V   24086.95816857  .00009183  00000-0  59474-3 0  9999,2 54777  53.2199   3.4921 0000530  85.7247 274.3806 15.08811526 72322,6917.967,95.439,540.199,539.466,0.0
54777.0,STARLINK-5468,PAYLOAD,2024-03-27 11:42:48,15.08863612,0.0001496,53.2188,1.1117,91.5669,268.5494,0.00029333,4.386e-05,0.0,0 STARLINK-5468,1 54777U 22175V   24087.48805912  .00004386  00000-0  29333-3 0  9999,2 54777  53.2188   1.1117 0001496  91.5669 268.5494 15.08863612 70247,6917.808,95.436,540.708,538.638,0.0
54777.0,STARLINK-5468,PAYLOAD,2024-03-28 03:36:44,15.08801647,7.68e-05,53.219,358.1393,113.0954,247.0119,3.8187e-05,3.2e-06,0.0,0 STARLINK-5468,1 54777U 22175V   24088.15051178  .00000320  00000-0  38187-4 0  9993,2 54777  53.2190 358.1393 0000768 113.0954 247.0119 15.08801647 70346,6917.998,95.44,540.394,539.331,0.0
54777.0,STARLINK-5468,PAYLOAD,2024-03-28 11:33:39,15.08820027,4.37e-05,53.2199,356.6547,87.3414,272.7628,0.00014851,2.076e-05,0.0,0 STARLINK-5468,1 54777U 22175V   24088.48170191  .00002076  00000-0  14851-3 0  9997,2 54777  53.2199 356.6547 0000437  87.3414 272.7628 15.08820027 70394,6917.941,95.439,540.109,539.504,0.0
54777.0,STARLINK-5468,PAYLOAD,2024-03-28 22:41:19,15.08857365,0.0001116,53.2194,354.5717,100.414,259.6978,7.8073e-05,9.55e-06,0.0,0 STARLINK-5468,1 54777U 22175V   24088.94536005  .00000955  00000-0  78073-4 0  9999,2 54777  53.2194 354.5717 0001116 100.4140 259.6978 15.08857365 72628,6917.827,95.436,540.464,538.92,0.0
54777.0,STARLINK-5468,PAYLOAD,2024-03-29 03:27:27,15.08871124,0.0001714,53.2197,353.6766,119.2715,240.8449,5.5518e-05,5.96e-06,0.0,0 STARLINK-5468,1 54777U 22175V   24089.14406878  .00000596  00000-0  55518-4 0  9996,2 54777  53.2197 353.6766 0001714 119.2715 240.8449 15.08871124 70492,6917.785,95.436,540.836,538.465,0.0
54777.0,STARLINK-5468,PAYLOAD,2024-03-29 20:56:43,15.08829124,6.68e-05,53.2192,350.4088,87.0326,273.0742,2.1188e-05,5e-07,0.0,0 STARLINK-5468,1 54777U 22175V   24089.87272780  .00000050  00000-0  21188-4 0  9990,2 54777  53.2192 350.4088 0000668  87.0326 273.0742 15.08829124 70606,6917.914,95.438,540.241,539.317,0.0
54777.0,STARLINK-5468,PAYLOAD,2024-03-29 22:32:06,15.0883254,9.69e-05,53.2182,350.109,87.3613,272.749,1.9432e-05,2.1e-07,0.0,0 STARLINK-5468,1 54777U 22175V   24089.93896712  .00000021  00000-0  19432-4 0  9991,2 54777  53.2182 350.1090 0000969  87.3613 272.7490 15.08832540 72773,6917.903,95.438,540.439,539.098,0.0
54777.0,STARLINK-5468,PAYLOAD,2024-03-30 09:39:47,15.08845078,0.0001218,53.221,348.0312,105.7957,254.3169,9.0814e-05,1.158e-05,0.0,0 STARLINK-5468,1 54777U 22175V   24090.40263781  .00001158  00000-0  90814-4 0  9994,2 54777  53.2210 348.0312 0001218 105.7957 254.3169 15.08845078 70689,6917.865,95.437,540.572,538.887,0.0
54777.0,STARLINK-5468,PAYLOAD,2024-03-30 20:47:31,15.08832395,8.92e-05,53.22,345.9545,109.6067,250.5022,3.6778e-05,2.98e-06,0.0,0 STARLINK-5468,1 54777U 22175V   24090.86633119  .00000298  00000-0  36778-4 0  9993,2 54777  53.2200 345.9545 0000892 109.6067 250.5022 15.08832395 70756,6917.904,95.438,540.386,539.152,0.0
54777.0,STARLINK-5468,PAYLOAD,2024-03-30 22:22:54,15.0883894,0.0001187,53.2202,345.6573,100.9481,259.1645,-6.9245e-05,-1.39e-05,0.0,0 STARLINK-5468,1 54777U 22175V   24090.93256995 -.00001390  00000-0 -69245-4 0  9995,2 54777  53.2202 345.6573 0001187 100.9481 259.1645 15.08838940 72927,6917.884,95.438,540.57,538.927,0.0
54777.0,STARLINK-5468,PAYLOAD,2024-03-31 03:09:02,15.08851329,0.0001072,53.2192,344.7609,95.9733,264.1381,-0.00015061,-2.685e-05,0.0,0 STARLINK-5468,1 54777U 22175V   24091.13128273 -.00002685  00000-0 -15061-3 0  9999,2 54777  53.2192 344.7609 0001072  95.9733 264.1381 15.08851329 70793,6917.846,95.437,540.452,538.969,0.0
54777.0,STARLINK-5468,PAYLOAD,2024-03-31 22:13:40,15.08838282,0.0001128,53.2195,341.1931,103.3664,256.7454,0.00016019,2.262e-05,0.0,0 STARLINK-5468,1 54777U 22175V   24091.92616095  .00002262  00000-0  16019-3 0  9993,2 54777  53.2195 341.1931 0001128 103.3664 256.7454 15.08838282 73079,6917.886,95.438,540.531,538.97,0.0
54777.0,STARLINK-5468,PAYLOAD,2024-04-01 09:21:21,15.08853439,9.7e-05,53.2189,339.1101,93.7878,266.3225,0.00022038,3.223e-05,0.0,0 STARLINK-5468,1 54777U 22175V   24092.38982991  .00003223  00000-0  22038-3 0  9991,2 54777  53.2189 339.1101 0000970  93.7878 266.3225 15.08853439 70982,6917.839,95.437,540.375,539.033,0.0
